NORAD_CAT_ID,OBJECT_NAME,OBJECT_TYPE,EPOCH,MEAN_MOTION,ECCENTRICITY,INCLINATION,RA_OF_ASC_NODE,ARG_OF_PERICENTER,MEAN_ANOMALY,BSTAR,MEAN_MOTION_DOT,MEAN_MOTION_DDOT,TLE_LINE0,TLE_LINE1,TLE_LINE2,SEMIMAJOR_AXIS,PERIOD,APOGEE,PERIGEE,DECAYED
54012.0,STARLINK-5126,PAYLOAD,2024-01-04 14:28:49,15.08840327,0.0001326,53.2159,173.2763,84.2523,275.862,4.3209e-05,4e-06,0.0,0 STARLINK-5126,1 54012U 22125BA  24004.60334743  .00000400  00000-0  43209-4 0  9990,2 54012  53.2159 173.2763 0001326  84.2523 275.8620 15.08840327 69579,6917.879,95.438,540.662,538.827,0.0
54012.0,STARLINK-5126,PAYLOAD,2024-01-04 20:50:21,15.08841766,0.0001286,53.2159,172.0864,88.0333,272.0806,5.0124e-05,5.1e-06,0.0,0 STARLINK-5126,1 54012U 22125BA  24004.86830583  .00000510  00000-0  50124-4 0  9997,2 54012  53.2159 172.0864 0001286  88.0333 272.0806 15.08841766 69667,6917.875,95.437,540.63,538.85,0.0
54012.0,STARLINK-5126,PAYLOAD,2024-01-05 14:19:36,15.08836761,0.0001242,53.2157,168.8135,93.7707,266.3427,6.3839e-06,-1.86e-06,0.0,0 STARLINK-5126,1 54012U 22125BA  24005.59695127 -.00000186  00000-0  63839-5 0  9999,2 54012  53.2157 168.8135 0001242  93.7707 266.3427 15.08836761 69720,6917.89,95.438,540.614,538.896,0.0
54012.0,STARLINK-5126,PAYLOAD,2024-01-05 17:30:22,15.08838579,0.0001283,53.2161,168.219,88.0291,272.0848,1.5484e-05,-4.1e-07,0.0,0 STARLINK-5126,1 54012U 22125BA  24005.72943023 -.00000041  00000-0  15484-4 0  9997,2 54012  53.2161 168.2190 0001283  88.0291 272.0848 15.08838579 69797,6917.885,95.438,540.637,538.862,0.0
54012.0,STARLINK-5126,PAYLOAD,2024-01-05 20:41:09,15.08838052,0.0001304,53.2163,167.6246,88.5799,271.5343,1.3553e-05,-7.2e-07,0.0,0 STARLINK-5126,1 54012U 22125BA  24005.86191073 -.00000072  00000-0  13553-4 0  9991,2 54012  53.2163 167.6246 0001304  88.5799 271.5343 15.08838052 69763,6917.886,95.438,540.653,538.849,0.0
54012.0,STARLINK-5126,PAYLOAD,2024-01-06 10:59:37,15.088363,0.0001275,53.216,164.9478,88.9597,271.1542,2.6885e-05,1.4e-06,0.0,0 STARLINK-5126,1 54012U 22125BA  24006.45807228  .00000140  00000-0  26885-4 0  9990,2 54012  53.2160 164.9478 0001275  88.9597 271.1542 15.08836300 69855,6917.892,95.438,540.639,538.875,0.0
54012.0,STARLINK-5126,PAYLOAD,2024-01-06 17:21:09,15.08840142,0.0001274,53.216,163.7583,90.437,269.6768,5.6686e-05,6.14e-06,0.0,0 STARLINK-5126,1 54012U 22125BA  24006.72302930  .00000614  00000-0  56686-4 0  9998,2 54012  53.2160 163.7583 0001274  90.4370 269.6768 15.08840142 69890,6917.88,95.438,540.626,538.864,0.0
54012.0,STARLINK-5126,PAYLOAD,2024-01-07 10:50:24,15.08834118,0.0001262,53.216,160.4878,90.5886,269.5251,-2.508e-06,-3.28e-06,0.0,0 STARLINK-5126,1 54012U 22125BA  24007.45167724 -.00000328  00000-0 -25080-5 0  9998,2 54012  53.2160 160.4878 0001262  90.5886 269.5251 15.08834118 70053,6917.898,95.438,540.636,538.89,0.0
54012.0,STARLINK-5126,PAYLOAD,2024-01-07 14:01:11,15.08833219,0.0001254,53.2158,159.8932,90.7732,269.3404,1.3906e-05,-6.7e-07,0.0,0 STARLINK-5126,1 54012U 22125BA  24007.58415773 -.00000067  00000-0  13906-4 0  9994,2 54012  53.2158 159.8932 0001254  90.7732 269.3404 15.08833219 70022,6917.901,95.438,540.634,538.899,0.0
54012.0,STARLINK-5126,PAYLOAD,2024-01-07 15:36:34,15.0883361,0.000125,53.2158,159.5959,90.2655,269.8481,1.582e-05,-3.6e-07,0.0,0 STARLINK-5126,1 54012U 22125BA  24007.65039767 -.00000036  00000-0  15820-4 0  9990,2 54012  53.2158 159.5959 0001250  90.2655 269.8481 15.08833610 70039,6917.9,95.438,540.63,538.9,0.0
54012.0,STARLINK-5126,PAYLOAD,2024-01-08 13:51:58,15.08839697,0.0001234,53.2156,155.434,88.5305,271.5829,3.9852e-05,3.46e-06,0.0,0 STARLINK-5126,1 54012U 22125BA  24008.57775587  .00000346  00000-0  39852-4 0  9993,2 54012  53.2156 155.4340 0001234  88.5305 271.5829 15.08839697 70172,6917.881,95.438,540.6,538.893,0.0
54012.0,STARLINK-5126,PAYLOAD,2024-01-08 17:02:44,15.08842072,0.0001245,53.2158,154.8392,83.7018,276.4116,5.6781e-05,6.16e-06,0.0,0 STARLINK-5126,1 54012U 22125BA  24008.71023411  .00000616  00000-0  56781-4 0  9991,2 54012  53.2158 154.8392 0001245  83.7018 276.4116 15.08842072 70246,6917.874,95.437,540.6,538.878,0.0
54012.0,STARLINK-5126,PAYLOAD,2024-01-09 13:42:45,15.08839255,0.0001297,53.2162,150.9743,68.2446,291.8684,8.9695e-05,1.14e-05,0.0,0 STARLINK-5126,1 54012U 22125BA  24009.57135631  .00001140  00000-0  89695-4 0  9997,2 54012  53.2162 150.9743 0001297  68.2446 291.8684 15.08839255 70327,6917.883,95.438,540.645,538.85,0.0
54012.0,STARLINK-5126,PAYLOAD,2024-01-09 18:28:53,15.08846994,0.0001267,53.2162,150.0818,81.4886,278.625,0.00015132,2.122e-05,0.0,0 STARLINK-5126,1 54012U 22125BA  24009.77006931  .00002122  00000-0  15132-3 0  9994,2 54012  53.2162 150.0818 0001267  81.4886 278.6250 15.08846994 70402,6917.859,95.437,540.601,538.848,0.0
54012.0,STARLINK-5126,PAYLOAD,2024-01-10 08:47:23,15.0883707,0.0001503,53.2168,147.4063,73.4493,286.6664,5.292e-06,-2.04e-06,0.0,0 STARLINK-5126,1 54012U 22125BA  24010.36624196 -.00000204  00000-0  52920-5 0  9998,2 54012  53.2168 147.4063 0001503  73.4493 286.6664 15.08837070 70490,6917.889,95.438,540.794,538.715,0.0
54012.0,STARLINK-5126,PAYLOAD,2024-01-11 14:59:41,15.08854586,0.0001387,53.2166,141.7568,84.0873,276.0277,7.9523e-05,9.78e-06,0.0,0 STARLINK-5126,1 54012U 22125BA  24011.62478672  .00000978  00000-0  79523-4 0  9998,2 54012  53.2166 141.7568 0001387  84.0873 276.0277 15.08854586 70635,6917.836,95.437,540.66,538.741,0.0
54012.0,STARLINK-5126,PAYLOAD,2024-01-11 18:10:27,15.08861555,0.0001267,53.2159,141.1598,97.9148,262.1988,0.00014393,2.005e-05,0.0,0 STARLINK-5126,1 54012U 22125BA  24011.75725880  .00002005  00000-0  14393-3 0  9994,2 54012  53.2159 141.1598 0001267  97.9148 262.1988 15.08861555 70706,6917.815,95.436,540.556,538.803,0.0
54012.0,STARLINK-5126,PAYLOAD,2024-01-12 11:39:42,15.08838541,0.0002687,53.2149,137.8823,140.1805,219.9385,-4.8604e-05,-1.062e-05,0.0,0 STARLINK-5126,1 54012U 22125BA  24012.48591325 -.00001062  00000-0 -48604-4 0  9997,2 54012  53.2149 137.8823 0002687 140.1805 219.9385 15.08838541 70818,6917.885,95.438,541.609,537.891,0.0
54012.0,STARLINK-5126,PAYLOAD,2024-01-12 14:50:29,15.08833863,0.0001532,53.2161,137.2948,107.4892,252.6268,-2.2333e-05,-6.43e-06,0.0,0 STARLINK-5126,1 54012U 22125BA  24012.61840028 -.00000643  00000-0 -22333-4 0  9994,2 54012  53.2161 137.2948 0001532 107.4892 252.6268 15.08833863 70786,6917.899,95.438,540.824,538.704,0.0
54012.0,STARLINK-5126,PAYLOAD,2024-01-13 14:41:16,15.08847757,0.0001357,53.215,132.8331,104.26,255.8543,7.2901e-05,8.73e-06,0.0,0 STARLINK-5126,1 54012U 22125BA  24013.61199638  .00000873  00000-0  72901-4 0  9998,2 54012  53.2150 132.8331 0001357 104.2600 255.8543 15.08847757 70933,6917.857,95.437,540.66,538.783,0.0
54012.0,STARLINK-5126,PAYLOAD,2024-01-13 17:52:02,15.08850479,0.000154,53.2151,132.2376,120.8354,239.279,0.00010154,1.329e-05,0.0,0 STARLINK-5126,1 54012U 22125BA  24013.74447441  .00001329  00000-0  10154-3 0  9998,2 54012  53.2151 132.2376 0001540 120.8354 239.2790 15.08850479 71005,6917.848,95.437,540.779,538.648,0.0
54012.0,STARLINK-5126,PAYLOAD,2024-01-14 11:21:17,15.08840115,0.0001793,53.2154,128.966,123.4319,236.6845,0.00017608,2.515e-05,0.0,0 STARLINK-5126,1 54012U 22125BA  24014.47312139  .00002515  00000-0  17608-3 0  9993,2 54012  53.2154 128.9660 0001793 123.4319 236.6845 15.08840115 71116,6917.88,95.438,540.985,538.505,0.0
54012.0,STARLINK-5126,PAYLOAD,2024-01-14 14:32:03,15.08845172,0.000165,53.2163,128.3746,110.1097,250.0073,0.00028207,4.205e-05,0.0,0 STARLINK-5126,1 54012U 22125BA  24014.60560125  .00004205  00000-0  28207-3 0  9993,2 54012  53.2163 128.3746 0001650 110.1097 250.0073 15.08845172 71080,6917.865,95.437,540.871,538.588,0.0
54012.0,STARLINK-5126,PAYLOAD,2024-01-15 14:22:50,15.08856564,0.0001409,53.2159,123.9133,90.3076,269.8078,0.00022719,3.331e-05,0.0,0 STARLINK-5126,1 54012U 22125BA  24015.59919206  .00003331  00000-0  22719-3 0  9991,2 54012  53.2159 123.9133 0001409  90.3076 269.8078 15.08856564 71231,6917.83,95.437,540.669,538.72,0.0
54012.0,STARLINK-5126,PAYLOAD,2024-01-16 12:38:14,15.08835333,0.0001485,53.2162,119.7505,98.3897,261.7263,-9.3781e-05,-1.78e-05,0.0,0 STARLINK-5126,1 54012U 22125BA  24016.52656171 -.00001780  00000-0 -93781-4 0  9990,2 54012  53.2162 119.7505 0001485  98.3897 261.7263 15.08835333 71423,6917.895,95.438,540.787,538.732,0.0
54012.0,STARLINK-5126,PAYLOAD,2024-01-16 14:13:38,15.0883596,0.0001526,53.2165,119.4532,75.9144,284.2017,-4.7756e-05,-1.048e-05,0.0,0 STARLINK-5126,1 54012U 22125BA  24016.59280298 -.00001048  00000-0 -47756-4 0  9998,2 54012  53.2165 119.4532 0001526  75.9144 284.2017 15.08835960 71383,6917.893,95.438,540.813,538.702,0.0
54012.0,STARLINK-5126,PAYLOAD,2024-01-16 15:49:01,15.0883961,0.0001448,53.2164,119.1553,89.8597,270.2561,2.1826e-05,5.9e-07,0.0,0 STARLINK-5126,1 54012U 22125BA  24016.65904093  .00000059  00000-0  21826-4 0  9990,2 54012  53.2164 119.1553 0001448  89.8597 270.2561 15.08839610 71397,6917.882,95.438,540.748,538.745,0.0
54012.0,STARLINK-5126,PAYLOAD,2024-01-17 14:04:25,15.08837189,0.0001896,53.2165,114.9946,70.3485,289.7711,0.00016474,2.334e-05,0.0,0 STARLINK-5126,1 54012U 22125BA  24017.58640962  .00002334  00000-0  16474-3 0  9995,2 54012  53.2165 114.9946 0001896  70.3485 289.7711 15.08837189 71532,6917.889,95.438,541.066,538.442,0.0
54012.0,STARLINK-5126,PAYLOAD,2024-01-18 12:19:50,15.08843769,0.0001998,53.2162,110.8335,66.7725,293.3477,0.00037205,5.639e-05,0.0,0 STARLINK-5126,1 54012U 22125BA  24018.51377364  .00005639  00000-0  37205-3 0  9998,2 54012  53.2162 110.8335 0001998  66.7725 293.3477 15.08843769 71671,6917.869,95.437,541.116,538.352,0.0
54012.0,STARLINK-5126,PAYLOAD,2024-01-19 12:10:36,15.0885769,0.000198,53.2163,106.3711,96.8389,263.2828,0.0003104,4.658e-05,0.0,0 STARLINK-5126,1 54012U 22125BA  24019.50736230  .00004658  00000-0  31040-3 0  9990,2 54012  53.2163 106.3711 0001980  96.8389 263.2828 15.08857690 71877,6917.826,95.436,541.061,538.322,0.0
